GLOBALSTAR M045         
1 25676U 99019A   25319.47467875 -.00000086  00000+0  67605-4 0  9994
2 25676  51.9963 234.0653 0000885  74.2039  98.4824 12.27068223211967
GLOBALSTAR M019         
1 25677U 99019B   25319.43612876 -.00000118  00000+0 -29597-3 0  9998
2 25677  51.9909  15.1844 0001008 248.0952 125.4229 12.13879747203519
GLOBALSTAR M044         
1 25678U 99019C   25319.26144515 -.00000073  00000+0  14797-3 0  9995
2 25678  51.9993 345.9305 0006064 331.6988 109.9705 11.90259463189312
GLOBALSTAR M042         
1 25679U 99019D   25319.47924366 -.00000039  00000+0  50066-3 0  9990
2 25679  52.0036 343.8501 0002881 248.9285 279.3322 12.22090941203753
GLOBALSTAR M025         
1 25770U 99031A   25319.35282926 -.00000046  00000+0  66260-3 0  9993
2 25770  51.9774 169.0852 0003109  51.4324 119.2192 11.22558205498680
GLOBALSTAR M049         
1 25771U 99031B   25319.43972022 -.00000054  00000+0  40015-3 0  9995
2 25771  51.9855 211.2487 0002093 285.9073  74.1493 11.12122183134255
GLOBALSTAR M047         
1 25772U 99031C   25319.33183851 -.00000059  00000+0  29780-3 0  9990
2 25772  51.9801 194.0217 0016390 158.2932 201.8571 11.31931215488227
GLOBALSTAR M052         
1 25773U 99031D   25319.48491957  .00000001  00000+0  22519-2 0  9994
2 25773  51.9884 317.6922 0002744  59.6241 111.2519 11.15061677495389
